NORAD_CAT_ID,OBJECT_NAME,OBJECT_TYPE,EPOCH,MEAN_MOTION,ECCENTRICITY,INCLINATION,RA_OF_ASC_NODE,ARG_OF_PERICENTER,MEAN_ANOMALY,BSTAR,MEAN_MOTION_DOT,MEAN_MOTION_DDOT,TLE_LINE0,TLE_LINE1,TLE_LINE2,SEMIMAJOR_AXIS,PERIOD,APOGEE,PERIGEE,DECAYED
51768.0,STARLINK-3622,PAYLOAD,2023-11-03 01:50:42,15.08850892,0.000133,53.2163,229.0949,84.3581,275.7563,0.00046707,7.155e-05,0.0,0 STARLINK-3622,1 51768U 22017A   23307.07688044  .00007155  00000-0  46707-3 0  9996,2 51768  53.2163 229.0949 0001330  84.3581 275.7563 15.08850892 94587,6917.847,95.437,540.632,538.792,0.0
51768.0,STARLINK-3622,PAYLOAD,2023-11-03 05:01:28,15.08857216,0.0001331,53.2169,228.4994,82.6738,277.4405,0.0006842,0.00010623,0.0,0 STARLINK-3622,1 51768U 22017A   23307.20935883  .00010623  00000-0  68420-3 0  9997,2 51768  53.2169 228.4994 0001331  82.6738 277.4405 15.08857216 94594,6917.828,95.436,540.614,538.772,0.0
51768.0,STARLINK-3622,PAYLOAD,2023-11-03 19:19:57,15.08839372,8.7e-05,53.2163,225.824,74.428,285.6808,0.00063087,9.767e-05,0.0,0 STARLINK-3622,1 51768U 22017A   23307.80552232  .00009767  00000-0  63087-3 0  9997,2 51768  53.2163 225.8240 0000870  74.4280 285.6808 15.08839372 94693,6917.882,95.438,540.349,539.145,0.0
51768.0,STARLINK-3622,PAYLOAD,2023-11-03 22:30:43,15.08848509,0.0001306,53.2164,225.2293,95.7071,264.407,0.0011004,0.00017272,0.0,0 STARLINK-3622,1 51768U 22017A   23307.93800154  .00017272  00000-0  11004-2 0  9991,2 51768  53.2164 225.2293 0001306  95.7071 264.4070 15.08848509 94705,6917.854,95.437,540.623,538.816,0.0
51768.0,STARLINK-3622,PAYLOAD,2023-11-04 04:52:15,15.0886496,0.0001145,53.2163,224.0398,95.372,264.7402,0.0017247,0.00027286,0.0,0 STARLINK-3622,1 51768U 22017A   23308.20295842  .00027286  00000-0  17247-2 0  9995,2 51768  53.2163 224.0398 0001145  95.3720 264.7402 15.08864960 94751,6917.804,95.436,540.461,538.877,0.0
51768.0,STARLINK-3622,PAYLOAD,2023-11-04 11:13:48,15.08855107,0.0001484,53.2169,222.849,88.7425,271.3738,0.00097851,0.00015326,0.0,0 STARLINK-3622,1 51768U 22017A   23308.46791980  .00015326  00000-0  97851-3 0  9999,2 51768  53.2169 222.8490 0001484  88.7425 271.3738 15.08855107 94782,6917.834,95.437,540.726,538.673,0.0
51768.0,STARLINK-3622,PAYLOAD,2023-11-04 22:21:30,15.08842454,0.0001385,53.2163,220.7691,81.5794,278.5355,0.0011707,0.00018394,0.0,0 STARLINK-3622,1 51768U 22017A   23308.93160377  .00018394  00000-0  11707-2 0  9994,2 51768  53.2163 220.7691 0001385  81.5794 278.5355 15.08842454 94859,6917.873,95.437,540.696,538.78,0.0
51768.0,STARLINK-3622,PAYLOAD,2023-11-05 04:43:02,15.08870362,0.0001419,53.216,219.5797,87.4331,272.6824,0.0016719,0.00026443,0.0,0 STARLINK-3622,1 51768U 22017A   23309.19655846  .00026443  00000-0  16719-2 0  9995,2 51768  53.2160 219.5797 0001419  87.4331 272.6824 15.08870362 94900,6917.788,95.436,540.634,538.671,0.0
51768.0,STARLINK-3622,PAYLOAD,2023-11-05 11:04:35,15.08862275,0.0001501,53.2155,218.3882,70.3,289.8154,0.001268,0.00019962,0.0,0 STARLINK-3622,1 51768U 22017A   23309.46151839  .00019962  00000-0  12680-2 0  9999,2 51768  53.2155 218.3882 0001501  70.3000 289.8154 15.08862275 94946,6917.812,95.436,540.716,538.639,0.0
51768.0,STARLINK-3622,PAYLOAD,2023-11-05 22:12:16,15.0887241,0.0001302,53.2173,216.3072,71.9536,288.1598,0.001019,0.00015981,0.0,0 STARLINK-3622,1 51768U 22017A   23309.92519019  .00015981  00000-0  10190-2 0  9999,2 51768  53.2173 216.3072 0001302  71.9536 288.1598 15.08872410 95009,6917.781,95.436,540.547,538.746,0.0
51768.0,STARLINK-3622,PAYLOAD,2023-11-06 02:58:24,15.08912881,0.0001653,53.2153,215.4163,81.4283,278.6897,0.002281,0.00036274,0.0,0 STARLINK-3622,1 51768U 22017A   23310.12389913  .00036274  00000-0  22810-2 0  9991,2 51768  53.2153 215.4163 0001653  81.4283 278.6897 15.08912881 95049,6917.658,95.433,540.666,538.379,0.0
51768.0,STARLINK-3622,PAYLOAD,2023-11-06 22:03:02,15.08802632,0.000139,53.2157,211.8485,85.9931,274.122,-0.0021242,-0.00033901,0.0,0 STARLINK-3622,1 51768U 22017A   23310.91878320 -.00033901  00000-0 -21242-2 0  9997,2 51768  53.2157 211.8485 0001390  85.9931 274.1220 15.08802632 95152,6917.995,95.44,540.821,538.898,0.0
51768.0,STARLINK-3622,PAYLOAD,2023-11-07 02:49:13,15.08765479,0.000132,53.2151,210.956,95.5254,264.5888,0.0013448,0.00021136,0.0,0 STARLINK-3622,1 51768U 22017A   23311.11751697  .00021136  00000-0  13448-2 0  9991,2 51768  53.2151 210.9560 0001320  95.5254 264.5888 15.08765479 95192,6918.108,95.442,540.886,539.06,0.0
51768.0,STARLINK-3622,PAYLOAD,2023-11-07 10:46:10,15.08792713,0.0001432,53.2151,209.4699,98.9595,261.1559,0.0025554,0.00040563,0.0,0 STARLINK-3622,1 51768U 22017A   23311.44873097  .00040563  00000-0  25554-2 0  9992,2 51768  53.2151 209.4699 0001432  98.9595 261.1559 15.08792713 95231,6918.025,95.441,540.881,538.899,0.0
51768.0,STARLINK-3622,PAYLOAD,2023-11-07 23:29:16,15.08827868,0.0001408,53.2155,207.0905,100.8144,259.3007,0.0021439,0.00033986,0.0,0 STARLINK-3622,1 51768U 22017A   23311.97866064  .00033986  00000-0  21439-2 0  9995,2 51768  53.2155 207.0905 0001408 100.8144 259.3007 15.08827868 95322,6917.917,95.438,540.757,538.808,0.0
51768.0,STARLINK-3622,PAYLOAD,2023-11-08 23:20:02,15.0887246,0.0001266,53.2158,202.632,92.8777,267.236,0.0015746,0.00024883,0.0,0 STARLINK-3622,1 51768U 22017A   23312.97225493  .00024883  00000-0  15746-2 0  9991,2 51768  53.2158 202.6320 0001266  92.8777 267.2360 15.08872460 95464,6917.781,95.436,540.522,538.77,0.0
51768.0,STARLINK-3622,PAYLOAD,2023-11-09 02:30:48,15.08889133,0.0001225,53.2164,202.0363,89.4425,270.6708,0.0016119,0.00025493,0.0,0 STARLINK-3622,1 51768U 22017A   23313.10473073  .00025493  00000-0  16119-2 0  9999,2 51768  53.2164 202.0363 0001225  89.4425 270.6708 15.08889133 95491,6917.73,95.434,540.443,538.748,0.0
51768.0,STARLINK-3622,PAYLOAD,2023-11-09 20:00:03,15.08852382,0.0001147,53.2173,198.7684,83.403,276.7093,0.0011754,0.00018474,0.0,0 STARLINK-3622,1 51768U 22017A   23313.83337284  .00018474  00000-0  11754-2 0  9993,2 51768  53.2173 198.7684 0001147  83.4030 276.7093 15.08852382 95600,6917.843,95.437,540.501,538.914,0.0
51768.0,STARLINK-3622,PAYLOAD,2023-11-09 21:35:26,15.08853116,0.0001178,53.2172,198.4685,93.4624,266.6503,0.0012637,0.00019888,0.0,0 STARLINK-3622,1 51768U 22017A   23313.89961183  .00019888  00000-0  12637-2 0  9991,2 51768  53.2172 198.4685 0001178  93.4624 266.6503 15.08853116 95601,6917.84,95.437,540.52,538.89,0.0
51768.0,STARLINK-3622,PAYLOAD,2023-11-10 19:50:50,15.08848399,0.000155,53.2174,194.3055,48.5162,311.5963,0.00069171,0.0001074,0.0,0 STARLINK-3622,1 51768U 22017A   23314.82697413  .00010740  00000-0  69171-3 0  9991,2 51768  53.2174 194.3055 0001550  48.5162 311.5963 15.08848399 95754,6917.855,95.437,540.792,538.647,0.0
51768.0,STARLINK-3622,PAYLOAD,2023-11-10 23:01:36,15.0884832,0.0001316,53.2169,193.7097,91.1672,268.9471,0.00042274,6.448e-05,0.0,0 STARLINK-3622,1 51768U 22017A   23314.95945079  .00006448  00000-0  42274-3 0  9994,2 51768  53.2169 193.7097 0001316  91.1672 268.9471 15.08848320 95761,6917.855,95.437,540.63,538.81,0.0
51768.0,STARLINK-3622,PAYLOAD,2023-11-11 14:55:28,15.08842749,0.000119,53.2162,190.7364,81.0181,279.0945,0.00016011,2.261e-05,0.0,0 STARLINK-3622,1 51768U 22017A   23315.62185190  .00002261  00000-0  16011-3 0  9998,2 51768  53.2162 190.7364 0001190  81.0181 279.0945 15.08842749 95860,6917.872,95.437,540.56,538.914,0.0
51768.0,STARLINK-3622,PAYLOAD,2023-11-11 19:41:37,15.08839112,0.000126,53.2163,189.8444,88.9351,271.1785,2.5788e-05,1.23e-06,0.0,0 STARLINK-3622,1 51768U 22017A   23315.82057339  .00000123  00000-0  25788-4 0  9990,2 51768  53.2163 189.8444 0001260  88.9351 271.1785 15.08839112 95902,6917.883,95.438,540.62,538.876,0.0
51768.0,STARLINK-3622,PAYLOAD,2023-11-11 22:52:24,15.08833809,0.0001383,53.2162,189.2494,91.4066,268.7084,0.00017783,2.543e-05,0.0,0 STARLINK-3622,1 51768U 22017A   23315.95305613  .00002543  00000-0  17783-3 0  9998,2 51768  53.2162 189.2494 0001383  91.4066 268.7084 15.08833809 95910,6917.899,95.438,540.721,538.808,0.0
51768.0,STARLINK-3622,PAYLOAD,2023-11-12 08:24:42,15.08838879,0.0001321,53.2161,187.4653,89.129,270.9853,7.5359e-05,9.12e-06,0.0,0 STARLINK-3622,1 51768U 22017A   23316.35049476  .00000912  00000-0  75359-4 0  9997,2 51768  53.2161 187.4653 0001321  89.1290 270.9853 15.08838879 95978,6917.884,95.438,540.663,538.835,0.0
51768.0,STARLINK-3622,PAYLOAD,2023-11-12 19:32:23,15.0885563,0.0001215,53.216,185.383,89.1593,270.9538,-0.00020113,-3.489e-05,0.0,0 STARLINK-3622,1 51768U 22017A   23316.81416645 -.00003489  00000-0 -20113-3 0  9995,2 51768  53.2160 185.3830 0001215  89.1593 270.9538 15.08855630 96053,6917.833,95.437,540.538,538.857,0.0
51768.0,STARLINK-3622,PAYLOAD,2023-11-12 21:07:47,15.08848117,0.0001278,53.216,185.0859,88.6856,271.4282,3.9294e-05,3.38e-06,0.0,0 STARLINK-3622,1 51768U 22017A   23316.88040971  .00000338  00000-0  39294-4 0  9996,2 51768  53.2160 185.0859 0001278  88.6856 271.4282 15.08848117 96050,6917.856,95.437,540.605,538.836,0.0
51768.0,STARLINK-3622,PAYLOAD,2023-11-13 08:15:29,15.08844521,0.0001276,53.2158,183.0041,84.4088,275.7049,0.00015066,2.111e-05,0.0,0 STARLINK-3622,1 51768U 22017A   23317.34409101  .00002111  00000-0  15066-3 0  9993,2 51768  53.2158 183.0041 0001276  84.4088 275.7049 15.08844521 96139,6917.867,95.437,540.614,538.849,0.0
51768.0,STARLINK-3622,PAYLOAD,2023-11-14 00:09:20,15.08841119,0.0001346,53.2156,180.0308,81.9018,278.2127,9.4481e-05,1.216e-05,0.0,0 STARLINK-3622,1 51768U 22017A   23318.00649285  .00001216  00000-0  94481-4 0  9990,2 51768  53.2156 180.0308 0001346  81.9018 278.2127 15.08841119 96239,6917.877,95.437,540.673,538.811,0.0
51768.0,STARLINK-3622,PAYLOAD,2023-11-14 08:06:16,15.08840617,0.0001328,53.2153,178.5445,85.8279,274.2864,6.4172e-05,7.34e-06,0.0,0 STARLINK-3622,1 51768U 22017A   23318.33769281  .00000734  00000-0  64172-4 0  9993,2 51768  53.2153 178.5445 0001328  85.8279 274.2864 15.08840617 96272,6917.879,95.438,540.662,538.825,0.0
